1 40029U 14033V   20136.25406735  .00000322  00000-0  39222-4 0  9999
2 40029  97.9390  65.2079 0014987  46.5363 313.7099 14.90097922320751
1 40029U 14033V   20136.58982140  .00000338  00000-0  40882-4 0  9995
2 40029  97.9391  65.5451 0014972  45.5437 314.7002 14.90098283320301
1 40029U 14033V   20136.79127383  .00000343  00000-0  41370-4 0  9997
2 40029  97.9391  65.7474 0014957  44.9408 315.3018 14.90098482320330
1 40029U 14033V   20137.52993262  .00000375  00000-0  44709-4 0  9990
2 40029  97.9392  66.4893 0014922  42.7004 317.5371 14.90099162320448
1 40029U 14033V   20137.73138493  .00000383  00000-0  45526-4 0  9997
2 40029  97.9392  66.6916 0014910  42.0670 318.1689 14.90099357320473
1 40029U 14033V   20138.06713875  .00000399  00000-0  47164-4 0  9994
2 40029  97.9392  67.0289 0014894  41.0381 319.1954 14.90099660320529
1 40029U 14033V   20138.26859107  .00000408  00000-0  48095-4 0  9990
2 40029  97.9393  67.2312 0014878  40.4223 319.8097 14.90099824321055
1 40029U 14033V   20138.80579693  .00000429  00000-0  50275-4 0  9995
2 40029  97.9393  67.7708 0014839  38.7506 321.4773 14.90100275320636
1 40029U 14033V   20139.27585198  .00000449  00000-0  52380-4 0  9995
2 40029  97.9393  68.2429 0014807  37.3029 322.9214 14.90100672321203
1 40029U 14033V   20139.74590672  .00000469  00000-0  54347-4 0  9997
2 40029  97.9393  68.7150 0014771  35.8204 324.4000 14.90101119320775
1 40029U 14033V   20140.55171450  .00000488  00000-0  56362-4 0  9997
2 40029  97.9394  69.5243 0014711  33.3299 326.8841 14.90101882320898
1 40029U 14033V   20140.75316635  .00000483  00000-0  55870-4 0  9993
2 40029  97.9394  69.7267 0014695  32.6909 327.5215 14.90102068321427
1 40029U 14033V   20141.35752166  .00000483  00000-0  55886-4 0  9990
2 40029  97.9395  70.3337 0014650  30.8602 329.3473 14.90102719321019
1 40029U 14033V   20141.76042511  .00000453  00000-0  52792-4 0  9991
2 40029  97.9395  70.7384 0014619  29.6171 330.5871 14.90102997321572
1 40029U 14033V   20142.36477990  .00000429  00000-0  50248-4 0  9998
2 40029  97.9395  71.3454 0014574  27.7960 332.4033 14.90103612321163
1 40029U 14033V   20142.76768302  .00000402  00000-0  47449-4 0  9992
2 40029  97.9395  71.7500 0014547  26.5663 333.6297 14.90103949321726
1 40029U 14033V   20143.03628500  .00000393  00000-0  46596-4 0  9999
2 40029  97.9396  72.0198 0014527  25.7826 334.4113 14.90104233321266
1 40029U 14033V   20143.77494028  .00000360  00000-0  43103-4 0  9991
2 40029  97.9396  72.7618 0014476  23.5561 336.6317 14.90104950321878
1 40029U 14033V   20143.84209071  .00000368  00000-0  44015-4 0  9992
2 40029  97.9396  72.8292 0014471  23.3596 336.8276 14.90105086321381
1 40029U 14033V   20145.11794921  .00000315  00000-0  38531-4 0  9995
2 40029  97.9396  74.1106 0014471  19.1602 341.0257 14.90107062322071
1 40029U 14033V   20146.79670613 -.00000006  00000-0  53412-5 0  9995
2 40029  97.9396  75.7966 0014471  13.6347 346.5133 14.90106160322326
1 40029U 14033V   20147.87111395  .00000465  00000-0  53968-4 0  9995
2 40029  97.9396  76.8761 0014161  10.7266 349.4251 14.90109230321980
1 40029U 14033V   20147.87111395  .00000465  00000-0  53968-4 0  9995
2 40029  97.9396  76.8761 0014161  10.7266 349.4251 14.90109230322486
1 40029U 14033V   20149.34841976  .00000501  00000-0  57694-4 0  9995
2 40029  97.9396  78.3600 0014028   5.9561 354.1820 14.90110592322704
1 40029U 14033V   20149.75132094  .00000501  00000-0  57723-4 0  9997
2 40029  97.9396  78.7646 0013994   4.6222 355.5122 14.90110999322261
1 40029U 14033V   20150.35567255  .00000496  00000-0  57233-4 0  9995
2 40029  97.9396  79.3717 0013931   2.6905 357.4385 14.90111631322855
1 40029U 14033V   20150.75857350  .00000467  00000-0  54156-4 0  9996
2 40029  97.9396  79.7764 0013897   1.3714 358.7539 14.90111929322413
1 40029U 14033V   20151.69867502  .00000439  00000-0  51322-4 0  9991
2 40029  97.9396  80.7207 0013803 358.3718   1.7452 14.90112995323057
1 40029U 14033V   20152.37017564  .00000419  00000-0  49211-4 0  9994
2 40029  97.9397  81.3951 0013742 356.2238   3.8874 14.90113808322657
1 40029U 14033V   20152.77307607  .00000375  00000-0  44698-4 0  9993
2 40029  97.9397  81.7998 0013710 354.9172   5.1904 14.90114045323215
1 40029U 14033V   20153.24312634  .00000355  00000-0  42607-4 0  9998
2 40029  97.9398  82.2720 0013660 353.4427   6.6610 14.90114528322783
1 40029U 14033V   20153.78032652  .00000342  00000-0  41291-4 0  9990
2 40029  97.9398  82.8116 0013618 351.6899   8.4090 14.90115059323361
1 40029U 14033V   20153.84747653  .00000343  00000-0  41438-4 0  9995
2 40029  97.9398  82.8790 0013610 351.4728   8.6256 14.90115143322875
1 40029U 14033V   20154.51897647  .00000360  00000-0  43141-4 0  9991
2 40029  97.9399  83.5536 0013547 349.3200  10.7727 14.90115948322973
1 40029U 14033V   20154.85472635  .00000366  00000-0  43762-4 0  9999
2 40029  97.9399  83.8908 0013518 348.2157  11.8742 14.90116327323024
1 40029U 14033V   20155.05617629  .00000367  00000-0  43909-4 0  9990
2 40029  97.9399  84.0932 0013500 347.5663  12.5219 14.90116512323550
1 40029U 14033V   20155.52622596  .00000397  00000-0  47004-4 0  9994
2 40029  97.9399  84.5653 0013459 346.0126  14.0717 14.90117100323123
1 40029U 14033V   20155.79482569  .00000409  00000-0  48182-4 0  9999
2 40029  97.9399  84.8352 0013438 345.1004  14.9815 14.90117417323167
1 40029U 14033V   20156.46632488  .00000452  00000-0  52622-4 0  9993
2 40029  97.9400  85.5097 0013380 342.8551  17.2212 14.90118195323263
1 40029U 14033V   20156.73492446  .00000461  00000-0  53591-4 0  9997
2 40029  97.9400  85.7795 0013361 341.9298  18.1443 14.90118473323307
1 40029U 14033V   20157.33927338  .00000502  00000-0  57825-4 0  9997
2 40029  97.9400  86.3865 0013306 339.8854  20.1837 14.90119176323890
1 40029U 14033V   20157.54072305  .00000492  00000-0  56760-4 0  9990
2 40029  97.9400  86.5889 0013289 339.1819  20.8856 14.90119231323421
1 40029U 14033V   20157.74217258  .00000499  00000-0  57468-4 0  9993
2 40029  97.9400  86.7913 0013275 338.4833  21.5825 14.90119455323459
1 40029U 14033V   20158.54797053  .00000517  00000-0  59308-4 0  9994
2 40029  97.9400  87.6007 0013201 335.7161  24.3432 14.90120217324078
1 40029U 14033V   20158.68227010  .00000518  00000-0  59431-4 0  9998
2 40029  97.9399  87.7356 0013192 335.2422  24.8161 14.90120371324094
1 40029U 14033V   20159.08516881  .00000516  00000-0  59302-4 0  9995
2 40029  97.9400  88.1403 0013158 333.8632  26.1919 14.90120768323651
1 40029U 14033V   20159.75666636  .00000493  00000-0  56901-4 0  9999
2 40029  97.9399  88.8149 0013100 331.5282  28.5218 14.90121393324255
1 40029U 14033V   20160.29386400  .00000523  00000-0  59936-4 0  9993
2 40029  97.9399  89.3545 0013043 329.6839  30.3623 14.90122262323833
1 40029U 14033V   20160.76391207  .00000451  00000-0  52575-4 0  9998
2 40029  97.9398  89.8266 0013002 328.0711  31.9717 14.90122418324402
1 40029U 14033V   20161.36825927  .00000392  00000-0  46496-4 0  9995
2 40029  97.9398  90.4337 0012942 325.9987  34.0400 14.90122852323990
1 40029U 14033V   20161.77115719  .00000379  00000-0  45095-4 0  9990
2 40029  97.9398  90.8384 0012915 324.6022  35.4337 14.90123293324054
1 40029U 14033V   20162.03975580  .00000363  00000-0  43507-4 0  9999
2 40029  97.9398  91.1082 0012885 323.6892  36.3449 14.90123530324590
1 40029U 14033V   20162.37550396  .00000354  00000-0  42534-4 0  9999
2 40029  97.9398  91.4455 0012856 322.5348  37.4972 14.90123913324148
1 40029U 14033V   20162.77840171  .00000346  00000-0  41650-4 0  9995
2 40029  97.9398  91.8502 0012824 321.1449  38.8845 14.90124336324208
1 40029U 14033V   20163.04700021  .00000333  00000-0  40367-4 0  9995
2 40029  97.9398  92.1201 0012795 320.2270  39.8009 14.90124556324743
1 40029U 14033V   20163.85279550  .00000326  00000-0  39684-4 0  9994
2 40029  97.9398  92.9295 0012731 317.4224  42.6005 14.90125345324364
1 40029U 14033V   20164.05424429  .00000328  00000-0  39795-4 0  9999
2 40029  97.9398  93.1319 0012714 316.7297  43.2920 14.90125529324892
1 40029U 14033V   20164.32284265  .00000335  00000-0  40536-4 0  9994
2 40029  97.9398  93.4017 0012691 315.7975  44.2228 14.90125823324435
1 40029U 14033V   20164.79288968  .00000349  00000-0  41964-4 0  9990
2 40029  97.9398  93.8739 0012663 314.1306  45.8869 14.90126283324507
1 40029U 14033V   20165.06148796  .00000354  00000-0  42514-4 0  9993
2 40029  97.9399  94.1437 0012645 313.2034  46.8126 14.90126509325043
1 40029U 14033V   20165.53153493  .00000369  00000-0  44091-4 0  9993
2 40029  97.9399  94.6159 0012617 311.5245  48.4889 14.90126890324612
1 40029U 14033V   20165.80013312  .00000374  00000-0  44543-4 0  9996
2 40029  97.9399  94.8857 0012604 310.5635  49.4485 14.90127112324652
1 40029U 14033V   20166.06873130  .00000383  00000-0  45509-4 0  9990
2 40029  97.9399  95.1555 0012584 309.6185  50.3921 14.90127324325198
1 40029U 14033V   20166.87452561  .00000401  00000-0  47421-4 0  9996
2 40029  97.9400  95.9649 0012543 306.6866  53.3198 14.90127905324813
1 40029U 14033V   20167.07597414  .00000409  00000-0  48220-4 0  9992
2 40029  97.9400  96.1673 0012526 305.9741  54.0314 14.90128063325341
1 40029U 14033V   20167.41172165  .00000425  00000-0  49895-4 0  9999
2 40029  97.9400  96.5046 0012510 304.7395  55.2644 14.90128352324893
1 40029U 14033V   20167.88176796  .00000435  00000-0  50913-4 0  9998
2 40029  97.9400  96.9768 0012490 303.0214  56.9802 14.90128750324961
1 40029U 14033V   20168.08321637  .00000434  00000-0  50827-4 0  9990
2 40029  97.9400  97.1792 0012479 302.3010  57.6998 14.90128886325497
1 40029U 14033V   20168.21751534  .00000435  00000-0  50925-4 0  9998
2 40029  97.9400  97.3141 0012474 301.7937  58.2065 14.90128983325011
1 40029U 14033V   20168.55326256  .00000425  00000-0  49821-4 0  9996
2 40029  97.9400  97.6513 0012458 300.5653  59.4335 14.90129189325068
1 40029U 14033V   20169.09045800  .00000408  00000-0  48106-4 0  9995
2 40029  97.9400  98.1910 0012428 298.6143  61.3823 14.90129597325644
